LANDSAT 9               
1 49260U 21088A   23287.92244490  .00001042  00000+0  24145-3 0  9991
2 49260  98.2187 356.3156 0001124  87.1882 272.9445 14.57102913108835
